ONEWEB-0290             
1 49080U 21075F   25355.18408655  .00000074  00000+0  15750-3 0  9994
2 49080  87.9109  41.2361 0001453  81.1040 279.0256 13.17647960210177
ONEWEB-0291             
1 49081U 21075G   25355.09297027  .00000087  00000+0  19101-3 0  9992
2 49081  87.9113  41.2607 0001372 108.5878 251.5402 13.17647360210159
ONEWEB-0293             
1 49082U 21075H   25355.19421845  .00000045  00000+0  81873-4 0  9991
2 49082  87.9102  41.2607 0001582  96.8028 263.3283 13.17647356210194
ONEWEB-0294             
1 49083U 21075J   25355.16415565  .00002020  00000+0  55892-2 0  9996
2 49083  87.8927  26.0148 0001148  72.7074 287.4180 13.12314162211221
ONEWEB-0295             
1 49084U 21075K   25355.19336817  .00000100  00000+0  22533-3 0  9996
2 49084  87.9099  41.2652 0001627 110.6851 249.4455 13.17649282210152
ONEWEB-0296             
1 49085U 21075L   25354.15277778  .00000352  00000+0  94327-3 0  9991
2 49085  87.8929  26.2219 0001403 105.8195 254.3088 13.12418099211091
ONEWEB-0297             
1 49086U 21075M   25355.02194027  .00000262  00000+0  69147-3 0  9996
2 49086  87.8929  26.0806 0001609  95.8798 264.2514 13.12460992211810
ONEWEB-0298             
1 49087U 21075N   25355.19771330 -.00001568  00000+0 -40707-2 0  9995
2 49087  87.9105  41.2608 0001928 101.4081 258.7267 13.17655724210186
ONEWEB-0299             
1 49088U 21075P   25355.19927939  .00000103  00000+0  23094-3 0  9997
2 49088  87.9112  41.2233 0001801 106.6870 253.4459 13.17648347210168
ONEWEB-0300             
1 49089U 21075Q   25355.01427205  .00000382  00000+0  10268-2 0  9997
2 49089  87.8933  26.0423 0002096  93.8690 266.2678 13.12395144211834
ONEWEB-0301             
1 49090U 21075R   25355.15065804  .00000381  00000+0  10242-2 0  9998
2 49090  87.8936  26.0177 0002194  95.8372 264.3006 13.12380814211217
ONEWEB-0302             
1 49091U 21075S   25355.06088017 -.00000003  00000+0 -42701-4 0  9990
2 49091  87.8935  26.0426 0001480  89.8647 270.2651 13.12458347211184
ONEWEB-0304             
1 49092U 21075T   25355.17395765  .00000047  00000+0  89084-4 0  9995
2 49092  87.9109  41.2592 0001741 102.8497 257.2829 13.17650529210138
ONEWEB-0305             
1 49093U 21075U   25354.63565948  .00000007  00000+0 -14405-4 0  9990
2 49093  87.9115  41.3439 0001776 113.1068 247.0251 13.17647082210095
ONEWEB-0308             
1 49094U 21075V   25355.05413154  .00003376  00000+0  93416-2 0  9997
2 49094  87.8928  26.0382 0001978  92.2520 267.8835 13.12477510211190
ONEWEB-0309             
1 49095U 21075W   25355.09465551  .00000119  00000+0  27347-3 0  9993
2 49095  87.9113  41.2680 0001356  95.2599 264.8688 13.17648152210129
ONEWEB-0310             
1 49096U 21075X   25355.06933175  .00000281  00000+0  74573-3 0  9996
2 49096  87.8927  26.0697 0001672  94.9249 265.2071 13.12408657211828
